{
  "norad_id": 64470,
  "name": "CHINASAT 9C",
  "history": [
    {
      "epoch": "2026-03-24T18:48:20.594880Z",
      "apogee_km": 35797.98007507117,
      "perigee_km": 35775.95386805851,
      "latitude_deg": 0.004893763817782948,
      "longitude_deg": 92.18698776166615,
      "height_km": 35796.30280447955,
      "semi_major_axis_km": 42165.103971564844,
      "eccentricity": 0.00026119,
      "inclination_deg": 0.0154,
      "raan_deg": 188.5944,
      "arg_perigee_deg": 160.8242,
      "mean_anomaly_deg": 207.1098,
      "mean_motion_rev_day": 1.00270458
    }
  ]
}